[{"OBJECT_NAME":"HULIANWANG DIGUI-113","OBJECT_ID":"2025-285J","EPOCH":"2026-03-02T17:31:49.672128","MEAN_MOTION":13.29331783,"ECCENTRICITY":4.19e-6,"INCLINATION":50.0096,"RA_OF_ASC_NODE":167.4725,"ARG_OF_PERICENTER":333.6381,"MEAN_ANOMALY":26.4489,"EPHEMERIS_TYPE":0,"CLASSIFICATION_TYPE":"U","NORAD_CAT_ID":66923,"ELEMENT_SET_NO":999,"REV_AT_EPOCH":1190,"BSTAR":-0.00017432751,"MEAN_MOTION_DOT":-2.05e-6,"MEAN_MOTION_DDOT":0},{"OBJECT_NAME":"HULIANWANG DIGUI-114","OBJECT_ID":"2025-287A","EPOCH":"2026-03-02T22:06:38.686176","MEAN_MOTION":13.24415443,"ECCENTRICITY":0.00019744,"INCLINATION":86.4979,"RA_OF_ASC_NODE":318.2956,"ARG_OF_PERICENTER":81.579,"MEAN_ANOMALY":278.5568,"EPHEMERIS_TYPE":0,"CLASSIFICATION_TYPE":"U","NORAD_CAT_ID":66953,"ELEMENT_SET_NO":999,"REV_AT_EPOCH":1127,"BSTAR":8.1067212e-5,"MEAN_MOTION_DOT":4.9e-7,"MEAN_MOTION_DDOT":0},{"OBJECT_NAME":"HULIANWANG DIGUI-115","OBJECT_ID":"2025-287B","EPOCH":"2026-03-02T21:55:44.474880","MEAN_MOTION":13.24415547,"ECCENTRICITY":0.00020619,"INCLINATION":86.4995,"RA_OF_ASC_NODE":318.3068,"ARG_OF_PERICENTER":81.2394,"MEAN_ANOMALY":278.8974,"EPHEMERIS_TYPE":0,"CLASSIFICATION_TYPE":"U","NORAD_CAT_ID":66954,"ELEMENT_SET_NO":999,"REV_AT_EPOCH":1127,"BSTAR":0.00011379782,"MEAN_MOTION_DOT":6.3e-7,"MEAN_MOTION_DDOT":0},{"OBJECT_NAME":"HULIANWANG DIGUI-116","OBJECT_ID":"2025-287C","EPOCH":"2026-03-02T21:44:52.457280","MEAN_MOTION":13.24415618,"ECCENTRICITY":0.00020515,"INCLINATION":86.4934,"RA_OF_ASC_NODE":318.2474,"ARG_OF_PERICENTER":81.0406,"MEAN_ANOMALY":279.096,"EPHEMERIS_TYPE":0,"CLASSIFICATION_TYPE":"U","NORAD_CAT_ID":66955,"ELEMENT_SET_NO":999,"REV_AT_EPOCH":1127,"BSTAR":0.00013292999,"MEAN_MOTION_DOT":7.2e-7,"MEAN_MOTION_DDOT":0},{"OBJECT_NAME":"HULIANWANG DIGUI-117","OBJECT_ID":"2025-287D","EPOCH":"2026-03-02T21:34:02.887392","MEAN_MOTION":13.24413716,"ECCENTRICITY":0.00014287,"INCLINATION":86.4995,"RA_OF_ASC_NODE":318.3002,"ARG_OF_PERICENTER":23.8489,"MEAN_ANOMALY":336.2711,"EPHEMERIS_TYPE":0,"CLASSIFICATION_TYPE":"U","NORAD_CAT_ID":66956,"ELEMENT_SET_NO":999,"REV_AT_EPOCH":1127,"BSTAR":0.00015285207,"MEAN_MOTION_DOT":8.0e-7,"MEAN_MOTION_DDOT":0},{"OBJECT_NAME":"HULIANWANG DIGUI-118","OBJECT_ID":"2025-287E","EPOCH":"2026-03-02T21:23:08.944800","MEAN_MOTION":13.2441499,"ECCENTRICITY":0.00020418,"INCLINATION":86.4971,"RA_OF_ASC_NODE":318.2746,"ARG_OF_PERICENTER":81.0237,"MEAN_ANOMALY":279.1128,"EPHEMERIS_TYPE":0,"CLASSIFICATION_TYPE":"U","NORAD_CAT_ID":66957,"ELEMENT_SET_NO":999,"REV_AT_EPOCH":1127,"BSTAR":0.00019738913,"MEAN_MOTION_DOT":9.9e-7,"MEAN_MOTION_DDOT":0},{"OBJECT_NAME":"HULIANWANG DIGUI-119","OBJECT_ID":"2025-295A","EPOCH":"2026-03-02T18:39:00.522432","MEAN_MOTION":13.51600384,"ECCENTRICITY":1.501e-5,"INCLINATION":50.0036,"RA_OF_ASC_NODE":48.6911,"ARG_OF_PERICENTER":355.1515,"MEAN_ANOMALY":4.9366,"EPHEMERIS_TYPE":0,"CLASSIFICATION_TYPE":"U","NORAD_CAT_ID":67059,"ELEMENT_SET_NO":999,"REV_AT_EPOCH":1132,"BSTAR":0.00010827601,"MEAN_MOTION_DOT":-6.1e-7,"MEAN_MOTION_DDOT":0},{"OBJECT_NAME":"HULIANWANG DIGUI-120","OBJECT_ID":"2025-295B","EPOCH":"2026-03-02T11:15:00.294624","MEAN_MOTION":13.51973214,"ECCENTRICITY":0.00011687,"INCLINATION":50.0047,"RA_OF_ASC_NODE":49.7293,"ARG_OF_PERICENTER":319.1501,"MEAN_ANOMALY":40.9294,"EPHEMERIS_TYPE":0,"CLASSIFICATION_TYPE":"U","NORAD_CAT_ID":67060,"ELEMENT_SET_NO":999,"REV_AT_EPOCH":1128,"BSTAR":0.00010792684,"MEAN_MOTION_DOT":-6.1e-7,"MEAN_MOTION_DDOT":0},{"OBJECT_NAME":"HULIANWANG DIGUI-121","OBJECT_ID":"2025-295C","EPOCH":"2026-03-02T20:16:45.815808","MEAN_MOTION":13.51739032,"ECCENTRICITY":7.901e-5,"INCLINATION":50.0011,"RA_OF_ASC_NODE":48.3568,"ARG_OF_PERICENTER":312.6066,"MEAN_ANOMALY":47.4749,"EPHEMERIS_TYPE":0,"CLASSIFICATION_TYPE":"U","NORAD_CAT_ID":67061,"ELEMENT_SET_NO":999,"REV_AT_EPOCH":1133,"BSTAR":0.00010856682,"MEAN_MOTION_DOT":-6.1e-7,"MEAN_MOTION_DDOT":0},{"OBJECT_NAME":"HULIANWANG DIGUI-122","OBJECT_ID":"2025-295D","EPOCH":"2026-03-02T19:57:35.698752","MEAN_MOTION":13.52161141,"ECCENTRICITY":4.905e-5,"INCLINATION":50.004,"RA_OF_ASC_NODE":48.3122,"ARG_OF_PERICENTER":287.0373,"MEAN_ANOMALY":73.0455,"EPHEMERIS_TYPE":0,"CLASSIFICATION_TYPE":"U","NORAD_CAT_ID":67062,"ELEMENT_SET_NO":999,"REV_AT_EPOCH":1133,"BSTAR":0.00010894892,"MEAN_MOTION_DOT":-6.0e-7,"MEAN_MOTION_DDOT":0},{"OBJECT_NAME":"HULIANWANG DIGUI-123","OBJECT_ID":"2025-295E","EPOCH":"2026-03-02T12:41:33.913536","MEAN_MOTION":13.52068102,"ECCENTRICITY":3.465e-5,"INCLINATION":50.0042,"RA_OF_ASC_NODE":49.3807,"ARG_OF_PERICENTER":296.4241,"MEAN_ANOMALY":63.6606,"EPHEMERIS_TYPE":0,"CLASSIFICATION_TYPE":"U","NORAD_CAT_ID":67063,"ELEMENT_SET_NO":999,"REV_AT_EPOCH":1129,"BSTAR":0.00013294701,"MEAN_MOTION_DOT":-4.4e-7,"MEAN_MOTION_DDOT":0},{"OBJECT_NAME":"HULIANWANG DIGUI-124","OBJECT_ID":"2025-295F","EPOCH":"2026-03-02T19:39:01.114560","MEAN_MOTION":13.52370348,"ECCENTRICITY":6.894e-5,"INCLINATION":50.0002,"RA_OF_ASC_NODE":48.2089,"ARG_OF_PERICENTER":350.5635,"MEAN_ANOMALY":9.5234,"EPHEMERIS_TYPE":0,"CLASSIFICATION_TYPE":"U","NORAD_CAT_ID":67064,"ELEMENT_SET_NO":999,"REV_AT_EPOCH":1133,"BSTAR":0.00010948064,"MEAN_MOTION_DOT":-6.0e-7,"MEAN_MOTION_DDOT":0},{"OBJECT_NAME":"HULIANWANG DIGUI-125","OBJECT_ID":"2025-295G","EPOCH":"2026-03-02T19:29:36.076704","MEAN_MOTION":13.52401826,"ECCENTRICITY":0.00011633,"INCLINATION":49.9992,"RA_OF_ASC_NODE":48.167,"ARG_OF_PERICENTER":6.8822,"MEAN_ANOMALY":353.2076,"EPHEMERIS_TYPE":0,"CLASSIFICATION_TYPE":"U","NORAD_CAT_ID":67065,"ELEMENT_SET_NO":999,"REV_AT_EPOCH":1133,"BSTAR":0.00010812508,"MEAN_MOTION_DOT":-6.0e-7,"MEAN_MOTION_DDOT":0},{"OBJECT_NAME":"HULIANWANG DIGUI-126","OBJECT_ID":"2025-295H","EPOCH":"2026-03-02T21:05:33.624096","MEAN_MOTION":13.52351326,"ECCENTRICITY":7.761e-5,"INCLINATION":49.9997,"RA_OF_ASC_NODE":47.8528,"ARG_OF_PERICENTER":50.3424,"MEAN_ANOMALY":309.7527,"EPHEMERIS_TYPE":0,"CLASSIFICATION_TYPE":"U","NORAD_CAT_ID":67066,"ELEMENT_SET_NO":999,"REV_AT_EPOCH":1134,"BSTAR":7.6722747e-5,"MEAN_MOTION_DOT":-8.1e-7,"MEAN_MOTION_DDOT":0},{"OBJECT_NAME":"HULIANWANG DIGUI-127","OBJECT_ID":"2025-295J","EPOCH":"2026-03-02T20:50:20.787360","MEAN_MOTION":13.52262555,"ECCENTRICITY":7.772e-5,"INCLINATION":50.0024,"RA_OF_ASC_NODE":47.8148,"ARG_OF_PERICENTER":356.8839,"MEAN_ANOMALY":3.2038,"EPHEMERIS_TYPE":0,"CLASSIFICATION_TYPE":"U","NORAD_CAT_ID":67067,"ELEMENT_SET_NO":999,"REV_AT_EPOCH":1134,"BSTAR":-0.00027571849,"MEAN_MOTION_DOT":-3.15e-6,"MEAN_MOTION_DDOT":0},{"OBJECT_NAME":"HULIANWANG DIGUI-128","OBJECT_ID":"2025-311A","EPOCH":"2026-03-02T17:58:28.722720","MEAN_MOTION":13.36478286,"ECCENTRICITY":4.606e-5,"INCLINATION":50.0074,"RA_OF_ASC_NODE":137.3953,"ARG_OF_PERICENTER":357.6491,"MEAN_ANOMALY":2.4382,"EPHEMERIS_TYPE":0,"CLASSIFICATION_TYPE":"U","NORAD_CAT_ID":67236,"ELEMENT_SET_NO":999,"REV_AT_EPOCH":918,"BSTAR":0.00011858994,"MEAN_MOTION_DOT":-6.5e-7,"MEAN_MOTION_DDOT":0}]
