HULIANWANG DIGUI-113    
1 66923U 25285J   26061.73043602 -.00000205  00000+0 -17433-3 0  9997
2 66923  50.0096 167.4725 0000041 333.6381  26.4489 13.29331783 11906
HULIANWANG DIGUI-114    
1 66953U 25287A   26061.92128109  .00000049  00000+0  81067-4 0  9998
2 66953  86.4979 318.2956 0001974  81.5790 278.5568 13.24415443 11272
HULIANWANG DIGUI-115    
1 66954U 25287B   26061.91370920  .00000063  00000+0  11380-3 0  9994
2 66954  86.4995 318.3068 0002061  81.2394 278.8974 13.24415547 11270
HULIANWANG DIGUI-116    
1 66955U 25287C   26061.90616270  .00000072  00000+0  13293-3 0  9990
2 66955  86.4934 318.2474 0002051  81.0406 279.0960 13.24415618 11272
HULIANWANG DIGUI-117    
1 66956U 25287D   26061.89864453  .00000080  00000+0  15285-3 0  9999
2 66956  86.4995 318.3002 0001428  23.8489 336.2711 13.24413716 11277
HULIANWANG DIGUI-118    
1 66957U 25287E   26061.89107575  .00000099  00000+0  19739-3 0  9993
2 66957  86.4971 318.2746 0002041  81.0237 279.1128 13.24414990 11277
HULIANWANG DIGUI-119    
1 67059U 25295A   26061.77708938 -.00000061  00000+0  10828-3 0  9993
2 67059  50.0036  48.6911 0000150 355.1515   4.9366 13.51600384 11329
HULIANWANG DIGUI-120    
1 67060U 25295B   26061.46875341 -.00000061  00000+0  10793-3 0  9995
2 67060  50.0047  49.7293 0001168 319.1501  40.9294 13.51973214 11283
HULIANWANG DIGUI-121    
1 67061U 25295C   26061.84497472 -.00000061  00000+0  10857-3 0  9994
2 67061  50.0011  48.3568 0000790 312.6066  47.4749 13.51739032 11330
HULIANWANG DIGUI-122    
1 67062U 25295D   26061.83166318 -.00000060  00000+0  10895-3 0  9997
2 67062  50.0040  48.3122 0000490 287.0373  73.0455 13.52161141 11332
HULIANWANG DIGUI-123    
1 67063U 25295E   26061.52886474 -.00000044  00000+0  13295-3 0  9995
2 67063  50.0042  49.3807 0000346 296.4241  63.6606 13.52068102 11295
HULIANWANG DIGUI-124    
1 67064U 25295F   26061.81876290 -.00000060  00000+0  10948-3 0  9993
2 67064  50.0002  48.2089 0000689 350.5635   9.5234 13.52370348 11330
HULIANWANG DIGUI-125    
1 67065U 25295G   26061.81222311 -.00000060  00000+0  10813-3 0  9994
2 67065  49.9992  48.1670 0001163   6.8822 353.2076 13.52401826 11337
HULIANWANG DIGUI-126    
1 67066U 25295H   26061.87886139 -.00000081  00000+0  76723-4 0  9991
2 67066  49.9997  47.8528 0000776  50.3424 309.7527 13.52351326 11349
HULIANWANG DIGUI-127    
1 67067U 25295J   26061.86829615 -.00000315  00000+0 -27572-3 0  9995
2 67067  50.0024  47.8148 0000777 356.8839   3.2038 13.52262555 11345
HULIANWANG DIGUI-128    
1 67236U 25311A   26061.74894355 -.00000065  00000+0  11859-3 0  9994
2 67236  50.0074 137.3953 0000460 357.6491   2.4382 13.36478286  9183
